{
  "type": "FeatureCollection",
  "features": [
    {
      "type": "Feature",
      "properties": {
        "id": "418169953",
        "name": "FAPITA",
        "building": "yes"
      },
      "geometry": {
        "type": "Polygon",
        "coordinates": [
          [
            [
              -58.8545969,
              -34.4217979
            ],
            [
              -58.8545968,
              -34.4218098
            ],
            [
              -58.8553201,
              -34.4218158
            ],
            [
              -58.8553272,
              -34.4212295
            ],
            [
              -58.8546021,
              -34.4212235
            ],
            [
              -58.8546018,
              -34.4212459
            ],
            [
              -58.8545328,
              -34.4212453
            ],
            [
              -58.8545326,
              -34.4212585
            ],
            [
              -58.8545003,
              -34.4212583
            ],
            [
              -58.8544971,
              -34.4215194
            ],
            [
              -58.8545244,
              -34.4215196
            ],
            [
              -58.8545210,
              -34.4217973
            ],
            [
              -58.8545969,
              -34.4217979
            ]
          ]
        ]
      }
    },
    {
      "type": "Feature",
      "properties": {
        "id": "418169954",
        "name": "Edificio",
        "building": "yes"
      },
      "geometry": {
        "type": "Polygon",
        "coordinates": [
          [
            [
              -58.8534236,
              -34.4194766
            ],
            [
              -58.8530741,
              -34.4194755
            ],
            [
              -58.8525677,
              -34.4194717
            ],
            [
              -58.8525605,
              -34.4196600
            ],
            [
              -58.8524439,
              -34.4196583
            ],
            [
              -58.8524340,
              -34.4201192
            ],
            [
              -58.8525496,
              -34.4201191
            ],
            [
              -58.8525461,
              -34.4202315
            ],
            [
              -58.8530562,
              -34.4202381
            ],
            [
              -58.8532624,
              -34.4202407
            ],
            [
              -58.8534165,
              -34.4202427
            ],
            [
              -58.8534786,
              -34.4202440
            ],
            [
              -58.8538815,
              -34.4202508
            ],
            [
              -58.8541255,
              -34.4202550
            ],
            [
              -58.8546856,
              -34.4202640
            ],
            [
              -58.8554878,
              -34.4202737
            ],
            [
              -58.8555646,
              -34.4202755
            ],
            [
              -58.8557093,
              -34.4202789
            ],
            [
              -58.8557249,
              -34.4195436
            ],
            [
              -58.8555029,
              -34.4195410
            ],
            [
              -58.8552535,
              -34.4195382
            ],
            [
              -58.8550918,
              -34.4195363
            ],
            [
              -58.8546850,
              -34.4195316
            ],
            [
              -58.8546851,
              -34.4194829
            ],
            [
              -58.8546853,
              -34.4194467
            ],
            [
              -58.8546858,
              -34.4193499
            ],
            [
              -58.8542652,
              -34.4193484
            ],
            [
              -58.8541416,
              -34.4193085
            ],
            [
              -58.8536050,
              -34.4193052
            ],
            [
              -58.8536068,
              -34.4194739
            ],
            [
              -58.8534236,
              -34.4194766
            ]
          ]
        ]
      }
    },
    {
      "type": "Feature",
      "properties": {
        "id": "418169955",
        "name": "Comedor",
        "building": "yes"
      },
      "geometry": {
        "type": "Polygon",
        "coordinates": [
          [
            [
              -58.8543018,
              -34.4205649
            ],
            [
              -58.8541239,
              -34.4205624
            ],
            [
              -58.8541159,
              -34.4209496
            ],
            [
              -58.8542937,
              -34.4209521
            ],
            [
              -58.8543018,
              -34.4205649
            ]
          ]
        ]
      }
    },
    {
      "type": "Feature",
      "properties": {
        "id": "418169956",
        "name": "SCG",
        "building": "yes"
      },
      "geometry": {
        "type": "Polygon",
        "coordinates": [
          [
            [
              -58.8522919,
              -34.4194705
            ],
            [
              -58.8517985,
              -34.4194583
            ],
            [
              -58.8517815,
              -34.4197559
            ],
            [
              -58.8522839,
              -34.4197459
            ],
            [
              -58.8522919,
              -34.4194705
            ]
          ]
        ]
      }
    },
    {
      "type": "Feature",
      "properties": {
        "id": "418169957",
        "name": "Balanza",
        "building": "yes"
      },
      "geometry": {
        "type": "Polygon",
        "coordinates": [
          [
            [
              -58.8559165,
              -34.4204410
            ],
            [
              -58.8557083,
              -34.4204348
            ],
            [
              -58.8556883,
              -34.4208294
            ],
            [
              -58.8556841,
              -34.4209857
            ],
            [
              -58.8558923,
              -34.4209920
            ],
            [
              -58.8558984,
              -34.4208275
            ],
            [
              -58.8559165,
              -34.4204410
            ]
          ]
        ]
      }
    },
    {
      "type": "Feature",
      "properties": {
        "id": "418169958",
        "name": "Edificio",
        "building": "yes"
      },
      "geometry": {
        "type": "Polygon",
        "coordinates": [
          [
            [
              -58.8540684,
              -34.4207076
            ],
            [
              -58.8539823,
              -34.4207060
            ],
            [
              -58.8539796,
              -34.4208045
            ],
            [
              -58.8540657,
              -34.4208061
            ],
            [
              -58.8540684,
              -34.4207076
            ]
          ]
        ]
      }
    },
    {
      "type": "Feature",
      "properties": {
        "id": "418169959",
        "name": "DMV",
        "building": "yes"
      },
      "geometry": {
        "type": "Polygon",
        "coordinates": [
          [
            [
              -58.8539625,
              -34.4205638
            ],
            [
              -58.8535891,
              -34.4205558
            ],
            [
              -58.8535771,
              -34.4209397
            ],
            [
              -58.8539504,
              -34.4209477
            ],
            [
              -58.8539625,
              -34.4205638
            ]
          ]
        ]
      }
    },
    {
      "type": "Feature",
      "properties": {
        "id": "418169960",
        "name": "Edificio",
        "building": "yes"
      },
      "geometry": {
        "type": "Polygon",
        "coordinates": [
          [
            [
              -58.8521791,
              -34.4220837
            ],
            [
              -58.8519852,
              -34.4220787
            ],
            [
              -58.8519808,
              -34.4222031
            ],
            [
              -58.8519772,
              -34.4223114
            ],
            [
              -58.8521711,
              -34.4223157
            ],
            [
              -58.8521747,
              -34.4222075
            ],
            [
              -58.8521791,
              -34.4220837
            ]
          ]
        ]
      }
    },
    {
      "type": "Feature",
      "properties": {
        "id": "418169963",
        "name": "Edificio",
        "building": "yes"
      },
      "geometry": {
        "type": "Polygon",
        "coordinates": [
          [
            [
              -58.8553215,
              -34.4183398
            ],
            [
              -58.8552266,
              -34.4182904
            ],
            [
              -58.8551394,
              -34.4184044
            ],
            [
              -58.8552343,
              -34.4184538
            ],
            [
              -58.8553215,
              -34.4183398
            ]
          ]
        ]
      }
    },
    {
      "type": "Feature",
      "properties": {
        "id": "418169965",
        "name": "Edificio",
        "building": "yes"
      },
      "geometry": {
        "type": "Polygon",
        "coordinates": [
          [
            [
              -58.8568819,
              -34.4191618
            ],
            [
              -58.8568344,
              -34.4191361
            ],
            [
              -58.8567908,
              -34.4191908
            ],
            [
              -58.8568383,
              -34.4192166
            ],
            [
              -58.8568819,
              -34.4191618
            ]
          ]
        ]
      }
    },
    {
      "type": "Feature",
      "properties": {
        "id": "418169966",
        "name": "Edificio",
        "building": "yes"
      },
      "geometry": {
        "type": "Polygon",
        "coordinates": [
          [
            [
              -58.8562307,
              -34.4204794
            ],
            [
              -58.8562318,
              -34.4203454
            ],
            [
              -58.8560172,
              -34.4203443
            ],
            [
              -58.8560162,
              -34.4204783
            ],
            [
              -58.8562307,
              -34.4204794
            ]
          ]
        ]
      }
    },
    {
      "type": "Feature",
      "properties": {
        "id": "418169967",
        "name": "Edificio",
        "building": "yes"
      },
      "geometry": {
        "type": "Polygon",
        "coordinates": [
          [
            [
              -58.8541091,
              -34.4212228
            ],
            [
              -58.8541099,
              -34.4211805
            ],
            [
              -58.8537747,
              -34.4211761
            ],
            [
              -58.8537738,
              -34.4212184
            ],
            [
              -58.8541091,
              -34.4212228
            ]
          ]
        ]
      }
    },
    {
      "type": "Feature",
      "properties": {
        "id": "418169968",
        "name": "Planta de Tratamientos",
        "building": "yes"
      },
      "geometry": {
        "type": "Polygon",
        "coordinates": [
          [
            [
              -58.8534466,
              -34.4188775
            ],
            [
              -58.8530975,
              -34.4188716
            ],
            [
              -58.8530908,
              -34.4191404
            ],
            [
              -58.8534399,
              -34.4191463
            ],
            [
              -58.8534466,
              -34.4188775
            ]
          ]
        ]
      }
    },
    {
      "type": "Feature",
      "properties": {
        "id": "418169969",
        "name": "MECOL",
        "building": "yes"
      },
      "geometry": {
        "type": "Polygon",
        "coordinates": [
          [
            [
              -58.8532364,
              -34.4212535
            ],
            [
              -58.8530429,
              -34.4212502
            ],
            [
              -58.8527333,
              -34.4212467
            ],
            [
              -58.8525382,
              -34.4212446
            ],
            [
              -58.8525288,
              -34.4218454
            ],
            [
              -58.8528748,
              -34.4218491
            ],
            [
              -58.8532214,
              -34.4218525
            ],
            [
              -58.8532364,
              -34.4212535
            ]
          ]
        ]
      }
    },
    {
      "type": "Feature",
      "properties": {
        "id": "418169970",
        "name": "Edificio",
        "building": "yes"
      },
      "geometry": {
        "type": "Polygon",
        "coordinates": [
          [
            [
              -58.8535405,
              -34.4215630
            ],
            [
              -58.8534021,
              -34.4214931
            ],
            [
              -58.8532707,
              -34.4216701
            ],
            [
              -58.8534091,
              -34.4217400
            ],
            [
              -58.8535405,
              -34.4215630
            ]
          ]
        ]
      }
    },
    {
      "type": "Feature",
      "properties": {
        "id": "418169971",
        "name": "DCG",
        "building": "yes"
      },
      "geometry": {
        "type": "Polygon",
        "coordinates": [
          [
            [
              -58.8521872,
              -34.4211571
            ],
            [
              -58.8519610,
              -34.4211672
            ],
            [
              -58.8519488,
              -34.4218392
            ],
            [
              -58.8521684,
              -34.4218244
            ],
            [
              -58.8521872,
              -34.4211571
            ]
          ]
        ]
      }
    },
    {
      "type": "Feature",
      "properties": {
        "id": "418169972",
        "name": "Edificio",
        "building": "yes"
      },
      "geometry": {
        "type": "Polygon",
        "coordinates": [
          [
            [
              -58.8558375,
              -34.4211705
            ],
            [
              -58.8559028,
              -34.4211708
            ],
            [
              -58.8559038,
              -34.4210164
            ],
            [
              -58.8556710,
              -34.4210154
            ],
            [
              -58.8556704,
              -34.4210154
            ],
            [
              -58.8556691,
              -34.4212128
            ],
            [
              -58.8558372,
              -34.4212136
            ],
            [
              -58.8558375,
              -34.4211705
            ]
          ]
        ]
      }
    },
    {
      "type": "Feature",
      "properties": {
        "id": "494444055",
        "name": "PEISA",
        "building": "yes"
      },
      "geometry": {
        "type": "Polygon",
        "coordinates": [
          [
            [
              -58.8534608,
              -34.4204904
            ],
            [
              -58.8525826,
              -34.4204763
            ],
            [
              -58.8525715,
              -34.4209431
            ],
            [
              -58.8534498,
              -34.4209572
            ],
            [
              -58.8534608,
              -34.4204904
            ]
          ]
        ]
      }
    },
    {
      "type": "Feature",
      "properties": {
        "id": "578936232",
        "name": "Expedición",
        "building": "yes"
      },
      "geometry": {
        "type": "Polygon",
        "coordinates": [
          [
            [
              -58.8557249,
              -34.4195436
            ],
            [
              -58.8557093,
              -34.4202789
            ],
            [
              -58.8555646,
              -34.4202755
            ],
            [
              -58.8554878,
              -34.4202737
            ],
            [
              -58.8555029,
              -34.4195410
            ],
            [
              -58.8557249,
              -34.4195436
            ]
          ]
        ]
      }
    },
    {
      "type": "Feature",
      "properties": {
        "id": "578936276",
        "name": "TALLER",
        "building": "yes"
      },
      "geometry": {
        "type": "Polygon",
        "coordinates": [
          [
            [
              -58.8534236,
              -34.4194766
            ],
            [
              -58.8534114,
              -34.4197840
            ],
            [
              -58.8534165,
              -34.4202427
            ],
            [
              -58.8532624,
              -34.4202407
            ],
            [
              -58.8530562,
              -34.4202381
            ],
            [
              -58.8530737,
              -34.4198017
            ],
            [
              -58.8530732,
              -34.4196616
            ],
            [
              -58.8530741,
              -34.4194755
            ],
            [
              -58.8534236,
              -34.4194766
            ]
          ]
        ]
      }
    },
    {
      "type": "Feature",
      "properties": {
        "id": "578936279",
        "name": "PLASTICO",
        "building": "yes"
      },
      "geometry": {
        "type": "Polygon",
        "coordinates": [
          [
            [
              -58.8530741,
              -34.4194755
            ],
            [
              -58.8525677,
              -34.4194717
            ],
            [
              -58.8525605,
              -34.4196600
            ],
            [
              -58.8530732,
              -34.4196616
            ],
            [
              -58.8530741,
              -34.4194755
            ]
          ]
        ]
      }
    },
    {
      "type": "Feature",
      "properties": {
        "id": "578936284",
        "name": "Preparación Talleres Prensado",
        "building": "yes"
      },
      "geometry": {
        "type": "Polygon",
        "coordinates": [
          [
            [
              -58.8525605,
              -34.4196600
            ],
            [
              -58.8524439,
              -34.4196583
            ],
            [
              -58.8524340,
              -34.4201192
            ],
            [
              -58.8525496,
              -34.4201191
            ],
            [
              -58.8525605,
              -34.4196600
            ]
          ]
        ]
      }
    },
    {
      "type": "Feature",
      "properties": {
        "id": "578936289",
        "name": "Surtidor Gasoil",
        "building": "yes"
      },
      "geometry": {
        "type": "Polygon",
        "coordinates": [
          [
            [
              -58.8523626,
              -34.4203755
            ],
            [
              -58.8521538,
              -34.4203722
            ],
            [
              -58.8521598,
              -34.4201184
            ],
            [
              -58.8523707,
              -34.4201218
            ],
            [
              -58.8523673,
              -34.4202636
            ],
            [
              -58.8523802,
              -34.4202638
            ],
            [
              -58.8523795,
              -34.4202902
            ],
            [
              -58.8523647,
              -34.4202900
            ],
            [
              -58.8523626,
              -34.4203755
            ]
          ]
        ]
      }
    },
    {
      "type": "Feature",
      "properties": {
        "id": "578936299",
        "name": "HORNOS",
        "building": "yes"
      },
      "geometry": {
        "type": "Polygon",
        "coordinates": [
          [
            [
              -58.8532120,
              -34.4218721
            ],
            [
              -58.8532103,
              -34.4221143
            ],
            [
              -58.8531997,
              -34.4223119
            ],
            [
              -58.8525250,
              -34.4222976
            ],
            [
              -58.8525386,
              -34.4218590
            ],
            [
              -58.8532120,
              -34.4218721
            ]
          ]
        ]
      }
    },
    {
      "type": "Feature",
      "properties": {
        "id": "578936301",
        "name": "Planta de Humos",
        "building": "yes"
      },
      "geometry": {
        "type": "Polygon",
        "coordinates": [
          [
            [
              -58.8521791,
              -34.4220837
            ],
            [
              -58.8519852,
              -34.4220787
            ],
            [
              -58.8519808,
              -34.4222031
            ],
            [
              -58.8521747,
              -34.4222075
            ],
            [
              -58.8521791,
              -34.4220837
            ]
          ]
        ]
      }
    },
    {
      "type": "Feature",
      "properties": {
        "id": "578936304",
        "name": "Chatarra",
        "building": "yes"
      },
      "geometry": {
        "type": "Polygon",
        "coordinates": [
          [
            [
              -58.8521747,
              -34.4222075
            ],
            [
              -58.8519808,
              -34.4222031
            ],
            [
              -58.8519772,
              -34.4223114
            ],
            [
              -58.8521711,
              -34.4223157
            ],
            [
              -58.8521747,
              -34.4222075
            ]
          ]
        ]
      }
    },
    {
      "type": "Feature",
      "properties": {
        "id": "1236293254",
        "name": "GALVO",
        "building": "yes"
      },
      "geometry": {
        "type": "Polygon",
        "coordinates": [
          [
            [
              -58.8544998,
              -34.4185538
            ],
            [
              -58.8535127,
              -34.4180847
            ],
            [
              -58.8532659,
              -34.4184210
            ],
            [
              -58.8542208,
              -34.4189255
            ],
            [
              -58.8544998,
              -34.4185538
            ]
          ]
        ]
      }
    },
    {
      "type": "Feature",
      "properties": {
        "id": "1236293255",
        "name": "RECEPCION",
        "building": "yes"
      },
      "geometry": {
        "type": "Polygon",
        "coordinates": [
          [
            [
              -58.8541269,
              -34.4198053
            ],
            [
              -58.8538137,
              -34.4198066
            ],
            [
              -58.8534114,
              -34.4197840
            ],
            [
              -58.8534165,
              -34.4202427
            ],
            [
              -58.8541255,
              -34.4202550
            ],
            [
              -58.8541269,
              -34.4198053
            ]
          ]
        ]
      }
    },
    {
      "type": "Feature",
      "properties": {
        "id": "1236293256",
        "name": "PVD",
        "building": "yes"
      },
      "geometry": {
        "type": "Polygon",
        "coordinates": [
          [
            [
              -58.8541280,
              -34.4194816
            ],
            [
              -58.8538238,
              -34.4194742
            ],
            [
              -58.8538137,
              -34.4198066
            ],
            [
              -58.8541269,
              -34.4198053
            ],
            [
              -58.8541280,
              -34.4194816
            ]
          ]
        ]
      }
    },
    {
      "type": "Feature",
      "properties": {
        "id": "1236293257",
        "name": "QMI",
        "building": "yes"
      },
      "geometry": {
        "type": "Polygon",
        "coordinates": [
          [
            [
              -58.8538238,
              -34.4194742
            ],
            [
              -58.8534236,
              -34.4194766
            ],
            [
              -58.8534114,
              -34.4197840
            ],
            [
              -58.8538137,
              -34.4198066
            ],
            [
              -58.8538238,
              -34.4194742
            ]
          ]
        ]
      }
    },
    {
      "type": "Feature",
      "properties": {
        "id": "1236293258",
        "name": "PCP",
        "building": "yes"
      },
      "geometry": {
        "type": "Polygon",
        "coordinates": [
          [
            [
              -58.8547875,
              -34.4205106
            ],
            [
              -58.8546169,
              -34.4205106
            ],
            [
              -58.8545980,
              -34.4210423
            ],
            [
              -58.8547875,
              -34.4210423
            ],
            [
              -58.8547875,
              -34.4205106
            ]
          ]
        ]
      }
    },
    {
      "type": "Feature",
      "properties": {
        "id": "1236293259",
        "name": "ACCESORIOS",
        "building": "yes"
      },
      "geometry": {
        "type": "Polygon",
        "coordinates": [
          [
            [
              -58.8553146,
              -34.4218944
            ],
            [
              -58.8532214,
              -34.4218525
            ],
            [
              -58.8532103,
              -34.4221143
            ],
            [
              -58.8552994,
              -34.4221339
            ],
            [
              -58.8553146,
              -34.4218944
            ]
          ]
        ]
      }
    },
    {
      "type": "Feature",
      "properties": {
        "id": "1236293260",
        "name": "SEMIELABORADOS",
        "building": "yes"
      },
      "geometry": {
        "type": "Polygon",
        "coordinates": [
          [
            [
              -58.8552994,
              -34.4221339
            ],
            [
              -58.8552965,
              -34.4223372
            ],
            [
              -58.8531997,
              -34.4223119
            ],
            [
              -58.8532103,
              -34.4221143
            ],
            [
              -58.8552994,
              -34.4221339
            ]
          ]
        ]
      }
    },
    {
      "type": "Feature",
      "properties": {
        "id": "1238305794",
        "name": "MONTAJE",
        "building": "yes"
      },
      "geometry": {
        "type": "Polygon",
        "coordinates": [
          [
            [
              -58.8555029,
              -34.4195410
            ],
            [
              -58.8546850,
              -34.4195316
            ],
            [
              -58.8546856,
              -34.4202640
            ],
            [
              -58.8554878,
              -34.4202737
            ],
            [
              -58.8555029,
              -34.4195410
            ]
          ]
        ]
      }
    },
    {
      "type": "Feature",
      "properties": {
        "id": "1238620172",
        "name": "ALMACEN",
        "building": "yes"
      },
      "geometry": {
        "type": "Polygon",
        "coordinates": [
          [
            [
              -58.8541255,
              -34.4202550
            ],
            [
              -58.8541269,
              -34.4198053
            ],
            [
              -58.8541280,
              -34.4194816
            ],
            [
              -58.8541416,
              -34.4193085
            ],
            [
              -58.8542652,
              -34.4193484
            ],
            [
              -58.8546858,
              -34.4193499
            ],
            [
              -58.8546853,
              -34.4194467
            ],
            [
              -58.8546850,
              -34.4195316
            ],
            [
              -58.8546856,
              -34.4202640
            ],
            [
              -58.8541255,
              -34.4202550
            ]
          ]
        ]
      }
    },
    {
      "type": "Feature",
      "properties": {
        "id": "1238620173",
        "name": "PRENSADO",
        "building": "yes"
      },
      "geometry": {
        "type": "Polygon",
        "coordinates": [
          [
            [
              -58.8530732,
              -34.4196616
            ],
            [
              -58.8525605,
              -34.4196600
            ],
            [
              -58.8525496,
              -34.4201191
            ],
            [
              -58.8525461,
              -34.4202315
            ],
            [
              -58.8530562,
              -34.4202381
            ],
            [
              -58.8530732,
              -34.4196616
            ]
          ]
        ]
      }
    },
    {
      "type": "Feature",
      "properties": {
        "id": "1330161180",
        "name": "Edificio",
        "building": "yes"
      },
      "geometry": {
        "type": "Polygon",
        "coordinates": [
          [
            [
              -58.8611228,
              -34.4161273
            ],
            [
              -58.8608590,
              -34.4165328
            ],
            [
              -58.8602947,
              -34.4162830
            ],
            [
              -58.8605584,
              -34.4158775
            ],
            [
              -58.8611228,
              -34.4161273
            ]
          ]
        ]
      }
    },
    {
      "type": "Feature",
      "properties": {
        "id": "1330161184",
        "name": "Edificio",
        "building": "yes"
      },
      "geometry": {
        "type": "Polygon",
        "coordinates": [
          [
            [
              -58.8599302,
              -34.4168959
            ],
            [
              -58.8598431,
              -34.4168570
            ],
            [
              -58.8599027,
              -34.4167663
            ],
            [
              -58.8599897,
              -34.4168053
            ],
            [
              -58.8599302,
              -34.4168959
            ]
          ]
        ]
      }
    },
    {
      "type": "Feature",
      "properties": {
        "id": "1330162773",
        "name": "Edificio",
        "building": "yes"
      },
      "geometry": {
        "type": "Polygon",
        "coordinates": [
          [
            [
              -58.8554399,
              -34.4216061
            ],
            [
              -58.8554370,
              -34.4217817
            ],
            [
              -58.8553714,
              -34.4217810
            ],
            [
              -58.8553756,
              -34.4215222
            ],
            [
              -58.8554197,
              -34.4215227
            ],
            [
              -58.8554184,
              -34.4216058
            ],
            [
              -58.8554399,
              -34.4216061
            ]
          ]
        ]
      }
    },
    {
      "type": "Feature",
      "properties": {
        "id": "1330162774",
        "name": "Edificio",
        "building": "yes"
      },
      "geometry": {
        "type": "Polygon",
        "coordinates": [
          [
            [
              -58.8537603,
              -34.4211398
            ],
            [
              -58.8537592,
              -34.4211973
            ],
            [
              -58.8536452,
              -34.4211959
            ],
            [
              -58.8536462,
              -34.4211384
            ],
            [
              -58.8537603,
              -34.4211398
            ]
          ]
        ]
      }
    },
    {
      "type": "Feature",
      "properties": {
        "id": "1330162775",
        "name": "Edificio",
        "building": "yes"
      },
      "geometry": {
        "type": "Polygon",
        "coordinates": [
          [
            [
              -58.8551183,
              -34.4204938
            ],
            [
              -58.8551171,
              -34.4210314
            ],
            [
              -58.8549145,
              -34.4210311
            ],
            [
              -58.8549145,
              -34.4210444
            ],
            [
              -58.8546128,
              -34.4210439
            ],
            [
              -58.8546141,
              -34.4204907
            ],
            [
              -58.8548059,
              -34.4204911
            ],
            [
              -58.8548059,
              -34.4204667
            ],
            [
              -58.8549333,
              -34.4204669
            ],
            [
              -58.8549333,
              -34.4204935
            ],
            [
              -58.8551183,
              -34.4204938
            ]
          ]
        ]
      }
    },
    {
      "type": "Feature",
      "properties": {
        "id": "1330162776",
        "name": "Edificio",
        "building": "yes"
      },
      "geometry": {
        "type": "Polygon",
        "coordinates": [
          [
            [
              -58.8524968,
              -34.4217941
            ],
            [
              -58.8524983,
              -34.4218583
            ],
            [
              -58.8524366,
              -34.4218592
            ],
            [
              -58.8524352,
              -34.4217951
            ],
            [
              -58.8524968,
              -34.4217941
            ]
          ]
        ]
      }
    },
    {
      "type": "Feature",
      "properties": {
        "id": "1330162777",
        "name": "Edificio",
        "building": "yes"
      },
      "geometry": {
        "type": "Polygon",
        "coordinates": [
          [
            [
              -58.8518525,
              -34.4218658
            ],
            [
              -58.8520851,
              -34.4218765
            ],
            [
              -58.8520799,
              -34.4219537
            ],
            [
              -58.8520238,
              -34.4219511
            ],
            [
              -58.8520257,
              -34.4219216
            ],
            [
              -58.8519268,
              -34.4219170
            ],
            [
              -58.8519235,
              -34.4219664
            ],
            [
              -58.8518459,
              -34.4219629
            ],
            [
              -58.8518525,
              -34.4218658
            ]
          ]
        ]
      }
    },
    {
      "type": "Feature",
      "properties": {
        "id": "1330162778",
        "name": "Edificio",
        "building": "yes"
      },
      "geometry": {
        "type": "Polygon",
        "coordinates": [
          [
            [
              -58.8522080,
              -34.4205292
            ],
            [
              -58.8522168,
              -34.4206104
            ],
            [
              -58.8521130,
              -34.4206180
            ],
            [
              -58.8521043,
              -34.4205368
            ],
            [
              -58.8522080,
              -34.4205292
            ]
          ]
        ]
      }
    },
    {
      "type": "Feature",
      "properties": {
        "id": "1330162779",
        "name": "Edificio",
        "building": "yes"
      },
      "geometry": {
        "type": "Polygon",
        "coordinates": [
          [
            [
              -58.8523214,
              -34.4192240
            ],
            [
              -58.8521177,
              -34.4192206
            ],
            [
              -58.8521196,
              -34.4191401
            ],
            [
              -58.8523234,
              -34.4191435
            ],
            [
              -58.8523214,
              -34.4192240
            ]
          ]
        ]
      }
    },
    {
      "type": "Feature",
      "properties": {
        "id": "1330162780",
        "name": "Edificio",
        "building": "yes"
      },
      "geometry": {
        "type": "Polygon",
        "coordinates": [
          [
            [
              -58.8540334,
              -34.4191817
            ],
            [
              -58.8536364,
              -34.4191817
            ],
            [
              -58.8536364,
              -34.4189981
            ],
            [
              -58.8540334,
              -34.4189981
            ],
            [
              -58.8540334,
              -34.4191817
            ]
          ]
        ]
      }
    }
  ]
}
